KUIPER-00152            
1 65772U 25217L   25356.16668980 -.01230474  00000+0 -50031-1 0  9991
2 65772  51.8794  18.7145 0002904  32.6713  79.7719 15.26885958  3994
KUIPER-00153            
1 65773U 25217M   25355.82404154  .00010793  00000+0  64831-3 0  9997
2 65773  51.8778  29.9086 0013265  52.0087 308.2084 15.11313534 13319
KUIPER-00155            
1 65774U 25217N   25355.47388860  .00050083  00000+0  13341-2 0  9999
2 65774  51.8670  22.4747 0006249  45.5541 314.5957 15.37669638 13382
KUIPER-00156            
1 65775U 25217P   25356.10753632 -.00244688  00000+0 -63939-2 0  9990
2 65775  51.8722  18.5341 0005871 336.2010  23.8705 15.39139508 13491
KUIPER-00158            
1 65776U 25217Q   25356.09652809 -.00068251  00000+0 -83200-2 0  9996
2 65776  51.8981  28.7932 0004927  50.7764 309.3636 14.83259452 13352
KUIPER-00163            
1 65777U 25217R   25356.16668980 -.00007444  00000+0 -98518-3 0  9998
2 65777  51.8975  30.8312 0001081  48.3336  60.3666 14.78353495  5510
KUIPER-00165            
1 65778U 25217S   25356.16668980 -.01109947  00000+0 -72696-1 0  9998
2 65778  51.8883  20.9910 0006280  55.6361 304.6540 15.10172403  3471
KUIPER-00166            
1 65779U 25217T   25356.05910867  .00037120  00000+0  94452-3 0  9997
2 65779  51.8721  18.9511 0002542 347.3720  12.7203 15.39229858 13487
